ISS (ZARYA)             
1 25544U 98067A   26010.88680200  .00009595  00000+0  18059-3 0  9994
2 25544  51.6334 358.1732 0007686   4.2400 355.8652 15.49222658547374
CSS (TIANHE)            
1 48274U 21035A   26010.91133230  .00015038  00000+0  18135-3 0  9994
2 48274  41.4652 199.4422 0011416 260.7676  99.1871 15.60382791268583
ISS (NAUKA)             
1 49044U 21066A   26010.88680200  .00009595  00000+0  18059-3 0  9990
2 49044  51.6334 358.1732 0007686   4.2400 355.8652 15.49222658230442
FREGAT DEB              
1 49271U 11037PF  26010.30736140  .00034223  00000+0  69558-1 0  9995
2 49271  51.6534 114.9359 0886511 286.7081  63.8381 12.35446335205464
CSS (WENTIAN)           
1 53239U 22085A   26010.91133230  .00015038  00000+0  18135-3 0  9997
2 53239  41.4652 199.4422 0011416 260.7676  99.1871 15.60382791173844
CSS (MENGTIAN)          
1 54216U 22143A   26010.91133230  .00015038  00000+0  18135-3 0  9998
2 54216  41.4652 199.4422 0011416 260.7676  99.1871 15.60382791158641
SHENZHOU-20 (SZ-20)     
1 63632U 25082A   26010.91133230  .00015038  00000+0  18135-3 0  9995
2 63632  41.4652 199.4422 0011416 260.7676  99.1871 15.60382791255304
PROGRESS-MS 31          
1 64751U 25146A   26010.88680200  .00009595  00000+0  18059-3 0  9995
2 64751  51.6334 358.1732 0007686   4.2400 355.8652 15.49222658  6759
TIANZHOU-9              
1 64786U 25149A   26010.91133230  .00015038  00000+0  18135-3 0  9990
2 64786  41.4652 199.4422 0011416 260.7676  99.1871 15.60382791255305
CREW DRAGON 11          
1 65077U 25166A   26010.88680200  .00009595  00000+0  18059-3 0  9999
2 65077  51.6334 358.1732 0007686   4.2400 355.8652 15.49222658  2140
DRAGON CRS-33           
1 65304U 25186A   26010.88680200  .00009595  00000+0  18059-3 0  9994
2 65304  51.6334 358.1732 0007686   4.2400 355.8652 15.49222658   118
PROGRESS-MS 32          
1 65586U 25204A   26010.88680200  .00009595  00000+0  18059-3 0  9997
2 65586  51.6334 358.1732 0007686   4.2400 355.8652 15.49222658   277
