CCSDS_OMM_VERS = 2.0
CREATION_DATE  = 
ORIGINATOR     = 

OBJECT_NAME    = ISS (ZARYA)
OBJECT_ID      = 1998-067A
CENTER_NAME    = EARTH
REF_FRAME      = TEME
TIME_SYSTEM    = UTC
MEAN_ELEMENT_THEORY = SGP/SGP4

EPOCH          = 2026-01-10T21:16:59.692800
MEAN_MOTION    = 15.49222658
ECCENTRICITY   = .0007686
INCLINATION    = 51.6334
RA_OF_ASC_NODE = 358.1732
ARG_OF_PERICENTER = 4.2400
MEAN_ANOMALY   = 355.8652

EPHEMERIS_TYPE = 0
CLASSIFICATION_TYPE = U
NORAD_CAT_ID   = 25544
ELEMENT_SET_NO = 999
REV_AT_EPOCH   = 54737
BSTAR          = .18059147E-3
MEAN_MOTION_DOT = .9595E-4
MEAN_MOTION_DDOT = 0

CCSDS_OMM_VERS = 2.0
CREATION_DATE  = 
ORIGINATOR     = 

OBJECT_NAME    = CSS (TIANHE)
OBJECT_ID      = 2021-035A
CENTER_NAME    = EARTH
REF_FRAME      = TEME
TIME_SYSTEM    = UTC
MEAN_ELEMENT_THEORY = SGP/SGP4

EPOCH          = 2026-01-10T21:52:19.110720
MEAN_MOTION    = 15.60382791
ECCENTRICITY   = .00114162
INCLINATION    = 41.4652
RA_OF_ASC_NODE = 199.4422
ARG_OF_PERICENTER = 260.7676
MEAN_ANOMALY   = 99.1871

EPHEMERIS_TYPE = 0
CLASSIFICATION_TYPE = U
NORAD_CAT_ID   = 48274
ELEMENT_SET_NO = 999
REV_AT_EPOCH   = 26858
BSTAR          = .18134976E-3
MEAN_MOTION_DOT = .15038E-3
MEAN_MOTION_DDOT = 0

CCSDS_OMM_VERS = 2.0
CREATION_DATE  = 
ORIGINATOR     = 

OBJECT_NAME    = ISS (NAUKA)
OBJECT_ID      = 2021-066A
CENTER_NAME    = EARTH
REF_FRAME      = TEME
TIME_SYSTEM    = UTC
MEAN_ELEMENT_THEORY = SGP/SGP4

EPOCH          = 2026-01-10T21:16:59.692800
MEAN_MOTION    = 15.49222658
ECCENTRICITY   = .0007686
INCLINATION    = 51.6334
RA_OF_ASC_NODE = 358.1732
ARG_OF_PERICENTER = 4.2400
MEAN_ANOMALY   = 355.8652

EPHEMERIS_TYPE = 0
CLASSIFICATION_TYPE = U
NORAD_CAT_ID   = 49044
ELEMENT_SET_NO = 999
REV_AT_EPOCH   = 23044
BSTAR          = .18059147E-3
MEAN_MOTION_DOT = .9595E-4
MEAN_MOTION_DDOT = 0

CCSDS_OMM_VERS = 2.0
CREATION_DATE  = 
ORIGINATOR     = 

OBJECT_NAME    = FREGAT DEB
OBJECT_ID      = 2011-037PF
CENTER_NAME    = EARTH
REF_FRAME      = TEME
TIME_SYSTEM    = UTC
MEAN_ELEMENT_THEORY = SGP/SGP4

EPOCH          = 2026-01-10T07:22:36.024960
MEAN_MOTION    = 12.35446335
ECCENTRICITY   = .08865115
INCLINATION    = 51.6534
RA_OF_ASC_NODE = 114.9359
ARG_OF_PERICENTER = 286.7081
MEAN_ANOMALY   = 63.8381

EPHEMERIS_TYPE = 0
CLASSIFICATION_TYPE = U
NORAD_CAT_ID   = 49271
ELEMENT_SET_NO = 999
REV_AT_EPOCH   = 20546
BSTAR          = .69557563E-1
MEAN_MOTION_DOT = .34223E-3
MEAN_MOTION_DDOT = 0

CCSDS_OMM_VERS = 2.0
CREATION_DATE  = 
ORIGINATOR     = 

OBJECT_NAME    = CSS (WENTIAN)
OBJECT_ID      = 2022-085A
CENTER_NAME    = EARTH
REF_FRAME      = TEME
TIME_SYSTEM    = UTC
MEAN_ELEMENT_THEORY = SGP/SGP4

EPOCH          = 2026-01-10T21:52:19.110720
MEAN_MOTION    = 15.60382791
ECCENTRICITY   = .00114162
INCLINATION    = 41.4652
RA_OF_ASC_NODE = 199.4422
ARG_OF_PERICENTER = 260.7676
MEAN_ANOMALY   = 99.1871

EPHEMERIS_TYPE = 0
CLASSIFICATION_TYPE = U
NORAD_CAT_ID   = 53239
ELEMENT_SET_NO = 999
REV_AT_EPOCH   = 17384
BSTAR          = .18134976E-3
MEAN_MOTION_DOT = .15038E-3
MEAN_MOTION_DDOT = 0

CCSDS_OMM_VERS = 2.0
CREATION_DATE  = 
ORIGINATOR     = 

OBJECT_NAME    = CSS (MENGTIAN)
OBJECT_ID      = 2022-143A
CENTER_NAME    = EARTH
REF_FRAME      = TEME
TIME_SYSTEM    = UTC
MEAN_ELEMENT_THEORY = SGP/SGP4

EPOCH          = 2026-01-10T21:52:19.110720
MEAN_MOTION    = 15.60382791
ECCENTRICITY   = .00114162
INCLINATION    = 41.4652
RA_OF_ASC_NODE = 199.4422
ARG_OF_PERICENTER = 260.7676
MEAN_ANOMALY   = 99.1871

EPHEMERIS_TYPE = 0
CLASSIFICATION_TYPE = U
NORAD_CAT_ID   = 54216
ELEMENT_SET_NO = 999
REV_AT_EPOCH   = 15864
BSTAR          = .18134976E-3
MEAN_MOTION_DOT = .15038E-3
MEAN_MOTION_DDOT = 0

CCSDS_OMM_VERS = 2.0
CREATION_DATE  = 
ORIGINATOR     = 

OBJECT_NAME    = SHENZHOU-20 (SZ-20)
OBJECT_ID      = 2025-082A
CENTER_NAME    = EARTH
REF_FRAME      = TEME
TIME_SYSTEM    = UTC
MEAN_ELEMENT_THEORY = SGP/SGP4

EPOCH          = 2026-01-10T21:52:19.110720
MEAN_MOTION    = 15.60382791
ECCENTRICITY   = .00114162
INCLINATION    = 41.4652
RA_OF_ASC_NODE = 199.4422
ARG_OF_PERICENTER = 260.7676
MEAN_ANOMALY   = 99.1871

EPHEMERIS_TYPE = 0
CLASSIFICATION_TYPE = U
NORAD_CAT_ID   = 63632
ELEMENT_SET_NO = 999
REV_AT_EPOCH   = 25530
BSTAR          = .18134976E-3
MEAN_MOTION_DOT = .15038E-3
MEAN_MOTION_DDOT = 0

CCSDS_OMM_VERS = 2.0
CREATION_DATE  = 
ORIGINATOR     = 

OBJECT_NAME    = PROGRESS-MS 31
OBJECT_ID      = 2025-146A
CENTER_NAME    = EARTH
REF_FRAME      = TEME
TIME_SYSTEM    = UTC
MEAN_ELEMENT_THEORY = SGP/SGP4

EPOCH          = 2026-01-10T21:16:59.692800
MEAN_MOTION    = 15.49222658
ECCENTRICITY   = .0007686
INCLINATION    = 51.6334
RA_OF_ASC_NODE = 358.1732
ARG_OF_PERICENTER = 4.2400
MEAN_ANOMALY   = 355.8652

EPHEMERIS_TYPE = 0
CLASSIFICATION_TYPE = U
NORAD_CAT_ID   = 64751
ELEMENT_SET_NO = 999
REV_AT_EPOCH   = 675
BSTAR          = .18059147E-3
MEAN_MOTION_DOT = .9595E-4
MEAN_MOTION_DDOT = 0

CCSDS_OMM_VERS = 2.0
CREATION_DATE  = 
ORIGINATOR     = 

OBJECT_NAME    = TIANZHOU-9
OBJECT_ID      = 2025-149A
CENTER_NAME    = EARTH
REF_FRAME      = TEME
TIME_SYSTEM    = UTC
MEAN_ELEMENT_THEORY = SGP/SGP4

EPOCH          = 2026-01-10T21:52:19.110720
MEAN_MOTION    = 15.60382791
ECCENTRICITY   = .00114162
INCLINATION    = 41.4652
RA_OF_ASC_NODE = 199.4422
ARG_OF_PERICENTER = 260.7676
MEAN_ANOMALY   = 99.1871

EPHEMERIS_TYPE = 0
CLASSIFICATION_TYPE = U
NORAD_CAT_ID   = 64786
ELEMENT_SET_NO = 999
REV_AT_EPOCH   = 25530
BSTAR          = .18134976E-3
MEAN_MOTION_DOT = .15038E-3
MEAN_MOTION_DDOT = 0

CCSDS_OMM_VERS = 2.0
CREATION_DATE  = 
ORIGINATOR     = 

OBJECT_NAME    = CREW DRAGON 11
OBJECT_ID      = 2025-166A
CENTER_NAME    = EARTH
REF_FRAME      = TEME
TIME_SYSTEM    = UTC
MEAN_ELEMENT_THEORY = SGP/SGP4

EPOCH          = 2026-01-10T21:16:59.692800
MEAN_MOTION    = 15.49222658
ECCENTRICITY   = .0007686
INCLINATION    = 51.6334
RA_OF_ASC_NODE = 358.1732
ARG_OF_PERICENTER = 4.2400
MEAN_ANOMALY   = 355.8652

EPHEMERIS_TYPE = 0
CLASSIFICATION_TYPE = U
NORAD_CAT_ID   = 65077
ELEMENT_SET_NO = 999
REV_AT_EPOCH   = 214
BSTAR          = .18059147E-3
MEAN_MOTION_DOT = .9595E-4
MEAN_MOTION_DDOT = 0

CCSDS_OMM_VERS = 2.0
CREATION_DATE  = 
ORIGINATOR     = 

OBJECT_NAME    = DRAGON CRS-33
OBJECT_ID      = 2025-186A
CENTER_NAME    = EARTH
REF_FRAME      = TEME
TIME_SYSTEM    = UTC
MEAN_ELEMENT_THEORY = SGP/SGP4

EPOCH          = 2026-01-10T21:16:59.692800
MEAN_MOTION    = 15.49222658
ECCENTRICITY   = .0007686
INCLINATION    = 51.6334
RA_OF_ASC_NODE = 358.1732
ARG_OF_PERICENTER = 4.2400
MEAN_ANOMALY   = 355.8652

EPHEMERIS_TYPE = 0
CLASSIFICATION_TYPE = U
NORAD_CAT_ID   = 65304
ELEMENT_SET_NO = 999
REV_AT_EPOCH   = 11
BSTAR          = .18059147E-3
MEAN_MOTION_DOT = .9595E-4
MEAN_MOTION_DDOT = 0

CCSDS_OMM_VERS = 2.0
CREATION_DATE  = 
ORIGINATOR     = 

OBJECT_NAME    = PROGRESS-MS 32
OBJECT_ID      = 2025-204A
CENTER_NAME    = EARTH
REF_FRAME      = TEME
TIME_SYSTEM    = UTC
MEAN_ELEMENT_THEORY = SGP/SGP4

EPOCH          = 2026-01-10T21:16:59.692800
MEAN_MOTION    = 15.49222658
ECCENTRICITY   = .0007686
INCLINATION    = 51.6334
RA_OF_ASC_NODE = 358.1732
ARG_OF_PERICENTER = 4.2400
MEAN_ANOMALY   = 355.8652

EPHEMERIS_TYPE = 0
CLASSIFICATION_TYPE = U
NORAD_CAT_ID   = 65586
ELEMENT_SET_NO = 999
REV_AT_EPOCH   = 27
BSTAR          = .18059147E-3
MEAN_MOTION_DOT = .9595E-4
MEAN_MOTION_DDOT = 0

